{
  "type": "FeatureCollection",
  "features": [
    {
      "type": "Feature",
      "properties": {},
      "geometry": {
        "type": "Polygon",
        "coordinates": [
          [
            [
              4.363107538436111,
              51.713121989774976
            ],
            [
              4.454298165146184,
              51.713121989774976
            ],
            [
              4.454298165146184,
              51.66617982792516
            ],
            [
              4.363107538436111,
              51.66617982792516
            ],
            [
              4.363107538436111,
              51.713121989774976
            ]
          ]
        ]
      }
    }
  ]
}